{
  "type": "FeatureCollection",
  "features": [
    {
      "type": "Feature",
      "properties": {
        "norad_id": 33822,
        "name": "COSMOS 2251 DEB",
        "group": "cosmos-2251-debris",
        "lat": -5.381547007228136,
        "lon": -155.5860955948756,
        "alt_km": 871.152959948271,
        "timestamp": "2025-12-05T18:53:13.674406+00:00",
        "meta_object_name": "COSMOS 2251 DEB",
        "meta_object_id": "1993-036BP",
        "meta_epoch": "2025-12-05T02:30:53.227872",
        "meta_mean_motion": 14.13014768,
        "meta_eccentricity": 0.01539376,
        "meta_inclination": 74.07,
        "meta_ra_of_asc_node": 207.1593,
        "meta_arg_of_pericenter": 255.2667,
        "meta_mean_anomaly": 228.7187,
        "meta_ephemeris_type": 0,
        "meta_classification_type": "U",
        "meta_norad_cat_id": 33822,
        "meta_element_set_no": 999,
        "meta_rev_at_epoch": 85946,
        "meta_bstar": 0.0026550755,
        "meta_mean_motion_dot": 5.521e-05,
        "meta_mean_motion_ddot": 0,
        "tle_line1": "1 33822U 93036BP  25339.10478273  .00005521  00000+0  26551-2 0  9996",
        "tle_line2": "2 33822  74.0700 207.1593 0153937 255.2667 228.7187 14.13014768859468"
      },
      "geometry": {
        "type": "Point",
        "coordinates": [
          -155.5860955948756,
          -5.381547007228136
        ]
      }
    },
    {
      "type": "Feature",
      "properties": {
        "norad_id": 33823,
        "name": "COSMOS 2251 DEB",
        "group": "cosmos-2251-debris",
        "lat": 13.928203775087836,
        "lon": -22.61642331171342,
        "alt_km": 977.4200298041051,
        "timestamp": "2025-12-05T18:53:13.674416+00:00",
        "meta_object_name": "COSMOS 2251 DEB",
        "meta_object_id": "1993-036BQ",
        "meta_epoch": "2025-12-05T06:57:40.969728",
        "meta_mean_motion": 13.98921806,
        "meta_eccentricity": 0.02092509,
        "meta_inclination": 73.8087,
        "meta_ra_of_asc_node": 162.3861,
        "meta_arg_of_pericenter": 288.7453,
        "meta_mean_anomaly": 257.1484,
        "meta_ephemeris_type": 0,
        "meta_classification_type": "U",
        "meta_norad_cat_id": 33823,
        "meta_element_set_no": 999,
        "meta_rev_at_epoch": 85505,
        "meta_bstar": 0.0011945628,
        "meta_mean_motion_dot": 2.053e-05,
        "meta_mean_motion_ddot": 0,
        "tle_line1": "1 33823U 93036BQ  25339.29005752  .00002053  00000+0  11946-2 0  9994",
        "tle_line2": "2 33823  73.8087 162.3861 0209250 288.7453 257.1484 13.98921806855057"
      },
      "geometry": {
        "type": "Point",
        "coordinates": [
          -22.61642331171342,
          13.928203775087836
        ]
      }
    },
    {
      "type": "Feature",
      "properties": {
        "norad_id": 33825,
        "name": "COSMOS 2251 DEB",
        "group": "cosmos-2251-debris",
        "lat": -28.445528530640583,
        "lon": -129.7386727738691,
        "alt_km": 723.43282016991,
        "timestamp": "2025-12-05T18:53:13.674426+00:00",
        "meta_object_name": "COSMOS 2251 DEB",
        "meta_object_id": "1993-036BS",
        "meta_epoch": "2025-12-05T06:46:40.505664",
        "meta_mean_motion": 14.69663206,
        "meta_eccentricity": 0.00841739,
        "meta_inclination": 73.9861,
        "meta_ra_of_asc_node": 42.2911,
        "meta_arg_of_pericenter": 11.2207,
        "meta_mean_anomaly": 50.3291,
        "meta_ephemeris_type": 0,
        "meta_classification_type": "U",
        "meta_norad_cat_id": 33825,
        "meta_element_set_no": 999,
        "meta_rev_at_epoch": 88770,
        "meta_bstar": 0.0015132493,
        "meta_mean_motion_dot": 9.49e-05,
        "meta_mean_motion_ddot": 0,
        "tle_line1": "1 33825U 93036BS  25339.28241326  .00009490  00000+0  15132-2 0  9997",
        "tle_line2": "2 33825  73.9861  42.2911 0084173  11.2207  50.3291 14.69663206887705"
      },
      "geometry": {
        "type": "Point",
        "coordinates": [
          -129.7386727738691,
          -28.445528530640583
        ]
      }
    },
    {
      "type": "Feature",
      "properties": {
        "norad_id": 33826,
        "name": "COSMOS 2251 DEB",
        "group": "cosmos-2251-debris",
        "lat": -11.664687792425921,
        "lon": -113.67152224694547,
        "alt_km": 716.063324883029,
        "timestamp": "2025-12-05T18:53:13.674437+00:00",
        "meta_object_name": "COSMOS 2251 DEB",
        "meta_object_id": "1993-036BT",
        "meta_epoch": "2025-12-05T04:53:58.750080",
        "meta_mean_motion": 14.51610478,
        "meta_eccentricity": 0.00840937,
        "meta_inclination": 74.066,
        "meta_ra_of_asc_node": 64.0422,
        "meta_arg_of_pericenter": 110.7845,
        "meta_mean_anomaly": 275.8587,
        "meta_ephemeris_type": 0,
        "meta_classification_type": "U",
        "meta_norad_cat_id": 33826,
        "meta_element_set_no": 999,
        "meta_rev_at_epoch": 87660,
        "meta_bstar": 0.0028534152,
        "meta_mean_motion_dot": 0.00011964,
        "meta_mean_motion_ddot": 0,
        "tle_line1": "1 33826U 93036BT  25339.20415220  .00011964  00000+0  28534-2 0  9995",
        "tle_line2": "2 33826  74.0660  64.0422 0084093 110.7845 275.8587 14.51610478876601"
      },
      "geometry": {
        "type": "Point",
        "coordinates": [
          -113.67152224694547,
          -11.664687792425921
        ]
      }
    },
    {
      "type": "Feature",
      "properties": {
        "norad_id": 33828,
        "name": "COSMOS 2251 DEB",
        "group": "cosmos-2251-debris",
        "lat": -73.98505123333794,
        "lon": 165.78601544783683,
        "alt_km": 738.8687790197373,
        "timestamp": "2025-12-05T18:53:13.674447+00:00",
        "meta_object_name": "COSMOS 2251 DEB",
        "meta_object_id": "1993-036BV",
        "meta_epoch": "2025-12-05T04:53:09.007008",
        "meta_mean_motion": 14.44292451,
        "meta_eccentricity": 0.00293611,
        "meta_inclination": 74.0475,
        "meta_ra_of_asc_node": 252.1027,
        "meta_arg_of_pericenter": 326.2114,
        "meta_mean_anomaly": 153.3069,
        "meta_ephemeris_type": 0,
        "meta_classification_type": "U",
        "meta_norad_cat_id": 33828,
        "meta_element_set_no": 999,
        "meta_rev_at_epoch": 88204,
        "meta_bstar": 0.001058897,
        "meta_mean_motion_dot": 3.635e-05,
        "meta_mean_motion_ddot": 0,
        "tle_line1": "1 33828U 93036BV  25339.20357647  .00003635  00000+0  10589-2 0  9992",
        "tle_line2": "2 33828  74.0475 252.1027 0029361 326.2114 153.3069 14.44292451882047"
      },
      "geometry": {
        "type": "Point",
        "coordinates": [
          165.78601544783683,
          -73.98505123333794
        ]
      }
    },
    {
      "type": "Feature",
      "properties": {
        "norad_id": 33830,
        "name": "COSMOS 2251 DEB",
        "group": "cosmos-2251-debris",
        "lat": 50.835137627054465,
        "lon": -95.42605110049352,
        "alt_km": 614.7640529381788,
        "timestamp": "2025-12-05T18:53:13.674457+00:00",
        "meta_object_name": "COSMOS 2251 DEB",
        "meta_object_id": "1993-036BX",
        "meta_epoch": "2025-12-05T04:43:06.055968",
        "meta_mean_motion": 14.76745586,
        "meta_eccentricity": 0.00422171,
        "meta_inclination": 74.0334,
        "meta_ra_of_asc_node": 245.1523,
        "meta_arg_of_pericenter": 6.8222,
        "meta_mean_anomaly": 149.3745,
        "meta_ephemeris_type": 0,
        "meta_classification_type": "U",
        "meta_norad_cat_id": 33830,
        "meta_element_set_no": 999,
        "meta_rev_at_epoch": 89360,
        "meta_bstar": 0.0019404157,
        "meta_mean_motion_dot": 0.00013792,
        "meta_mean_motion_ddot": 0,
        "tle_line1": "1 33830U 93036BX  25339.19659787  .00013792  00000+0  19404-2 0  9993",
        "tle_line2": "2 33830  74.0334 245.1523 0042217   6.8222 149.3745 14.76745586893600"
      },
      "geometry": {
        "type": "Point",
        "coordinates": [
          -95.42605110049352,
          50.835137627054465
        ]
      }
    },
    {
      "type": "Feature",
      "properties": {
        "norad_id": 33832,
        "name": "COSMOS 2251 DEB",
        "group": "cosmos-2251-debris",
        "lat": 28.863081839421927,
        "lon": 34.172676563799655,
        "alt_km": 694.6975765491279,
        "timestamp": "2025-12-05T18:53:13.674467+00:00",
        "meta_object_name": "COSMOS 2251 DEB",
        "meta_object_id": "1993-036BZ",
        "meta_epoch": "2025-12-05T04:07:18.770592",
        "meta_mean_motion": 14.60500945,
        "meta_eccentricity": 0.0025495,
        "meta_inclination": 74.0549,
        "meta_ra_of_asc_node": 224.4124,
        "meta_arg_of_pericenter": 256.9852,
        "meta_mean_anomaly": 259.6773,
        "meta_ephemeris_type": 0,
        "meta_classification_type": "U",
        "meta_norad_cat_id": 33832,
        "meta_element_set_no": 999,
        "meta_rev_at_epoch": 88314,
        "meta_bstar": 0.0029436818,
        "meta_mean_motion_dot": 0.00014348,
        "meta_mean_motion_ddot": 0,
        "tle_line1": "1 33832U 93036BZ  25339.17174503  .00014348  00000+0  29437-2 0  9996",
        "tle_line2": "2 33832  74.0549 224.4124 0025495 256.9852 259.6773 14.60500945883148"
      },
      "geometry": {
        "type": "Point",
        "coordinates": [
          34.172676563799655,
          28.863081839421927
        ]
      }
    }
  ]
}